"Bilingual","PropertyItemId","PropertyId","PropertyItemName","PropertyName","PropertyAddress","PropertyPhone","Language","PriorityProperty","City","Province","URL En","URL Fr"
"False","{D93F9F31-319F-42A0-8D83-5FECED16223D}","11156","fountains-of-mission","Chartwell Fountains of Mission Retirement Residence","222 25th Avenue SW, Calgary, Alberta T2S 3E9","587-287-3946","en","True","Calgary","Alberta","https://dev.chartwell.com/ab/calgary/fountains-of-mission",""
"False","{CC2C69FB-FAAD-4656-ACB4-E7EFDED99956}","11034","colonel-belcher","Chartwell Colonel Belcher Retirement Residence","1945 Veteran's Way NW, Calgary, Alberta T3B 5Y7","587-287-3938","en","False","Calgary","Alberta","https://dev.chartwell.com/ab/calgary/colonel-belcher",""
"False","{CF22610F-5AE3-4ABF-B119-27E9D77235EB}","11295","the-edward","Chartwell The Edward Retirement Residence","3023 16 Street SW Calgary, Calgary, Alberta T2T 6Y4","587-887-0094","en","False","Calgary","Alberta","https://dev.chartwell.com/ab/calgary/the-edward",""
"False","{A41E0786-A34F-466C-B9CB-0CAF0C260829}","11074","eau-claire","Chartwell Eau Claire Care Residence","301 7th Street SW, Calgary, Alberta T2P 1Y6","587-287-3944","en","False","Calgary","Alberta","https://dev.chartwell.com/ab/calgary/eau-claire",""
"False","{76EF40CA-BD0F-4D15-9F43-F25A065883F6}","11035","harbours","Chartwell Harbours Retirement Residence","20 Country Village Cove NE, Calgary, Alberta T3K 5T9","587-287-3942","en","True","Calgary","Alberta","https://dev.chartwell.com/ab/calgary/harbours",""
"False","{69A69A9B-0EFC-4459-9FCF-FB3490FEEDCB}","11033","royal-park","Chartwell Royal Park Retirement Residence","4315 Richardson Road SW, Calgary, Alberta T3E 7J7","587-287-3940","en","True","Calgary","Alberta","https://dev.chartwell.com/ab/calgary/royal-park",""
"False","{C0671BBD-70D2-4742-8F79-5FF4A5C14602}","11244","griesbach","Chartwell Griesbach Retirement Residence","4480 McCrae Avenue, Edmonton, Alberta T5E 0Y5","587-557-7764","en","False","Edmonton","Alberta","https://dev.chartwell.com/ab/edmonton/griesbach",""
"False","{E7B35C34-7522-4B6F-9DEA-19DBE677D923}","11257","hawthorn","Chartwell Hawthorn Retirement Residence","6411 199th Street NW, Edmonton, Alberta T5T 6Y4","587-557-4922","en","False","Edmonton","Alberta","https://dev.chartwell.com/ab/edmonton/hawthorn",""
"False","{96414B39-C2B7-4F64-9418-BB7815C8F0F9}","11243","heritage-valley","Chartwell Heritage Valley Retirement Residence","944 James Mowatt Trail SW, Edmonton, Alberta T6W 2B2","587-557-7789","en","True","Edmonton","Alberta","https://dev.chartwell.com/ab/edmonton/heritage-valley",""
"False","{18179900-B4B4-48DD-88D7-55FF20E8E21B}","11216","wescott","Chartwell Wescott Retirement Residence","3841 Allan Drive SW, Edmonton, Alberta T6W 4B8","587-487-4033","en","True","Edmonton","Alberta","https://dev.chartwell.com/ab/edmonton/wescott",""
"False","{820976CD-E740-4313-8DB2-2B606FCC0CDC}","11247","emerald-hills","Chartwell Emerald Hills Retirement Residence","6101 Eton Boulevard, Sherwood Park, Alberta T8H 2R8","587-745-2068","en","False","Sherwood Park","Alberta","https://dev.chartwell.com/ab/sherwood-park/emerald-hills",""
"False","{A1644391-80CB-4D76-8A6D-2F1388E30399}","11245","st-albert","Chartwell St Albert Retirement Residence","20 Hebert Road, St Albert, Alberta T8N 3Y6","587-805-4574","en","False","St Albert","Alberta","https://dev.chartwell.com/ab/st-albert/st-albert",""
"False","{57BACC44-32B1-487D-B39D-5B783233BA87}","11070","carlton","Chartwell Carlton Retirement Residence","4110 Norfolk Street, Burnaby, British Columbia V5G 0C1","778-300-2389","en","True","Burnaby","British Columbia","https://dev.chartwell.com/bc/burnaby/carlton",""
"False","{513A6568-6AE2-41BD-A3D7-FB28D92F7D13}","11072","birchwood","Chartwell Birchwood Retirement Residence","45650 Patten Avenue, Chilliwack, British Columbia V2P 1S4","604-426-0456","en","False","Chilliwack","British Columbia","https://dev.chartwell.com/bc/chilliwack/birchwood",""
"False","{399892D8-E134-4B6E-BC85-6464207B7939}","11030","hampton-house","Chartwell Hampton House Retirement Residence","45555 Hodgins Avenue, Chilliwack, British Columbia V2P 1P3","604-426-0452","en","False","Chilliwack","British Columbia","https://dev.chartwell.com/bc/chilliwack/hampton-house",""
"False","{635D8CF5-77CF-4E5B-9521-3312E07A578F}","11046","lynnwood","Chartwell Lynnwood Retirement Residence","9168 Corbould Street, Chilliwack, British Columbia V2P 8A1","604-426-0454","en","False","Chilliwack","British Columbia","https://dev.chartwell.com/bc/chilliwack/lynnwood",""
"False","{37718E22-E3CA-4E7C-ABB9-32F5C23BFF58}","11278","vista","Chartwell Vista Retirement Residence","622 Admirals Rd, Esquimalt, British Columbia V9A 2N7","778-557-1510","en","False","Esquimalt","British Columbia","https://dev.chartwell.com/bc/esquimalt/vista",""
"False","{06C3F0DA-36E6-4652-B02F-C40B4E2C5514}","11185","kamloops","Chartwell Kamloops Retirement Residence","628 Tranquille Road, Kamloops, British Columbia V2B 3H6","778-376-2001","en","False","Kamloops","British Columbia","https://dev.chartwell.com/bc/kamloops/kamloops",""
"False","{2C2D1CDC-8CBC-4AF8-86C8-1AED503D3386}","11191","ridgepointe","Chartwell Ridgepointe Retirement Residence","1789 Primrose Court, Kamloops, British Columbia V1S 0B7","778-376-2003","en","True","Kamloops","British Columbia","https://dev.chartwell.com/bc/kamloops/ridgepointe",""
"False","{2A65D877-9AE8-483F-8186-8F41377F3836}","11131","chatsworth","Chartwell Chatsworth Retirement Residence","1831 Parkview Crescent, Kelowna, British Columbia V1X 7G7","778-738-0624","en","False","Kelowna","British Columbia","https://dev.chartwell.com/bc/kelowna/chatsworth",""
"False","{D406F886-A1BB-46DA-B06E-338071E96391}","11073","langley-gardens","Chartwell Langley Gardens Retirement Residence","8888 202nd Street, Langley, British Columbia V1M 4A7","604-676-3098","en","False","Langley","British Columbia","https://dev.chartwell.com/bc/langley/langley-gardens",""
"False","{878903DA-413C-4050-B9F8-C680D2874CD4}","11047","willow","Chartwell Willow Retirement Community","12275-224th Street, Maple Ridge, British Columbia V2X 6H5","604-676-3817","en","False","Maple Ridge","British Columbia","https://dev.chartwell.com/bc/maple-ridge/willow",""
"False","{612EDFF4-F823-4D62-A8C9-53F34099FC81}","11048","carrington-house","Chartwell Carrington House Retirement Residence","32679 - 6th Avenue, Mission, British Columbia V2V 1Y8","604-557-5153","en","False","Mission","British Columbia","https://dev.chartwell.com/bc/mission/carrington-house",""
"False","{FA66961D-65B4-4401-B9D0-E377F85B921E}","11192","cedarbrooke","Chartwell Cedarbrooke Retirement Residence","32331 - 7th Avenue, Mission, British Columbia V2V 6T7","604-557-5155","en","True","Mission","British Columbia","https://dev.chartwell.com/bc/mission/cedarbrooke",""
"False","{8570370C-8A57-4EFA-9DD1-D766C0E0ACD8}","11280","edgewater","Chartwell Edgewater Retirement Residence & Edgewater Care","4979 Wills Road, Nanaimo, British Columbia V9T 2K4","250-760-4561","en","False","Nanaimo","British Columbia","https://dev.chartwell.com/bc/nanaimo/edgewater",""
"False","{BA85A9ED-F533-4D70-98B0-E705B8A180C2}","11116","churchill-house","Chartwell Churchill House Retirement Residence","150 West 29th Street, North Vancouver, British Columbia V7N 0A1","778-382-0099","en","False","North Vancouver","British Columbia","https://dev.chartwell.com/bc/north-vancouver/churchill-house",""
"False","{25253CF8-EAD4-467E-9C20-A0C3F6184B7A}","13071","crescent-gardens","Chartwell Crescent Gardens Retirement Residence","1222 King George Boulevard, Surrey, British Columbia V4A 9W6","778-736-0346","en","False","Surrey","British Columbia","https://dev.chartwell.com/bc/surrey/crescent-gardens",""
"False","{8F4A6A7E-0865-4AFE-95D4-BEFB4B924E10}","11154","imperial-place","Chartwell Imperial Place Retirement Residence","13853 102nd Avenue, Surrey, British Columbia V3T 5P6","778-735-0541","en","False","Surrey","British Columbia","https://dev.chartwell.com/bc/surrey/imperial-place",""
"False","{DFD050FE-4D8C-44C2-AC7F-EDA49EC61E7B}","11069","carrington-place","Chartwell Carrington Place Retirement Residence","4651 23rd Street, Vernon, British Columbia V1T 4K7","236-600-5987","en","False","Vernon","British Columbia","https://dev.chartwell.com/bc/vernon/carrington-place",""
"False","{D7D8BBE4-67B7-4D7A-B66A-5E11343E0CE2}","11281","victoria-harbour","Victoria Harbour by Chartwell","777 Belleville Street, Victoria, British Columbia V8W 0G1","778-486-1359","en","False","Victoria","British Columbia","https://dev.chartwell.com/bc/victoria/victoria-harbour",""
"False","{212DD146-B50E-49F5-AFC0-0983F14424CE}","11206","harwood","Chartwell Harwood Retirement Residence","240 Old Harwood Avenue, Ajax, Ontario L1T 0N2","289-608-8364","en","True","Ajax","Ontario","https://dev.chartwell.com/on/ajax/harwood",""
"False","{4299D6C0-113A-4244-890E-579A8F8A990C}","11210","hollandview-trail","Chartwell Hollandview Trail Retirement Residence","200 John West Way, Aurora, Ontario L4G 0E4","289-648-4099","en","True","Aurora","Ontario","https://dev.chartwell.com/on/aurora/hollandview-trail",""
"False","{3B640F6A-C9B5-44D3-80AC-261AF2528E20}","11026","park-place","Chartwell Park Place Retirement Residence","15055 Yonge Street, Aurora, Ontario L4G 6T4","289-648-4113","en","True","Aurora","Ontario","https://dev.chartwell.com/on/aurora/park-place",""
"False","{68F22484-2645-4B74-805D-7C24A178BA97}","11263","allandale-station","Chartwell Allandale Station Retirement Residence","357 Yonge Street, Barrie, Ontario L4N 4K3","249-888-9781","en","False","Barrie","Ontario","https://dev.chartwell.com/on/barrie/allandale-station",""
"False","{E31F6C16-73CE-4A82-B5DA-74CA71978B51}","11153","whispering-pines","Chartwell Whispering Pines Retirement Residence","140 Letitia Street, Barrie, Ontario L4N 1P5","705-881-9885","en","False","Barrie","Ontario","https://dev.chartwell.com/on/barrie/whispering-pines",""
"False","{AF576EA7-816F-462B-8645-DF42DC2780EC}","11002","bayview","Chartwell Bayview Retirement Residence","435 Dundas Street West, Belleville, Ontario K8P 1B6","613-689-9985","en","False","Belleville","Ontario","https://dev.chartwell.com/on/belleville/bayview",""
"False","{8259142F-7DBF-485E-A296-48697201B33E}","11265","bowmanville-creek","Chartwell Bowmanville Creek Retirement Residence","105 Queen Street, Bowmanville, Ontario L1C 0T3","289-223-4936","en","False","Bowmanville","Ontario","https://dev.chartwell.com/on/bowmanville/bowmanville-creek",""
"False","{3F08629F-62C0-4817-8CD4-F8B43C4A69B0}","11152","tranquility-place","Chartwell Tranquility Place Retirement Residence","436 Powerline Road, Brantford, Ontario N3T 5L8","226-227-9884","en","False","Brantford","Ontario","https://dev.chartwell.com/on/brantford/tranquility-place",""
"False","{32156C3A-96AD-4549-BF1F-38346FEDEF70}","11004","rosedale","Chartwell Rosedale Retirement Residence","1813 County Road 2 East, RR 1, Brockville, Ontario K6V 5T1","613-499-9983","en","True","Brockville","Ontario","https://dev.chartwell.com/on/brockville/rosedale",""
"False","{852E7108-EEF2-4B5A-A71B-6E7AFEA7A37A}","11224","wedgewood","Chartwell Wedgewood Retirement Residence","15 Market Street East, Brockville, Ontario K6V 0A6","613-499-9636","en","True","Brockville","Ontario","https://dev.chartwell.com/on/brockville/wedgewood",""
"False","{01957AE9-DD52-400D-8558-B39D74D20171}","11237","lakeshore","Chartwell Lakeshore Retirement Residence","5314 Lakeshore Road, Burlington, Ontario  L7L 6L8","289-635-3173","en","False","Burlington","Ontario","https://dev.chartwell.com/on/burlington/lakeshore",""
"False","{2E2E5B42-953D-42D1-8929-DB67EF21095E}","11024","martha-s-landing","Chartwell Martha's Landing Retirement Residence","2109 Lakeshore Road, Burlington, Ontario L7R 4Z4","289-635-3193","en","True","Burlington","Ontario","https://dev.chartwell.com/on/burlington/martha-s-landing",""
"False","{5FF3E2CB-4B9D-4A69-9A0A-1C95928B282F}","11096","queens-square","Chartwell Queen's Square Retirement Residence","10 Melville Street North, Cambridge, Ontario N1S 1H5","226-533-9709","en","False","Cambridge","Ontario","https://dev.chartwell.com/on/cambridge/queens-square",""
"False","{AF64443B-DF17-403D-94C3-1805D28F2476}","11264","balmoral","Chartwell Balmoral Retirement Residence","8 Harbour Street West, Collingwood, Ontario L9Y 5R5","705-532-9606","en","False","Collingwood","Ontario","https://dev.chartwell.com/on/collingwood/balmoral",""
"False","{D14B98BF-F5B2-4560-8903-8041F16A4816}","11136","georgian-traditions","Chartwell Georgian Traditions Retirement Residence","57 Trott Boulevard, Collingwood, Ontario L9Y 0A3","705-532-9979","en","False","Collingwood","Ontario","https://dev.chartwell.com/on/collingwood/georgian-traditions",""
"True","{7F83707D-7B55-4A04-AF88-609E77674407}","11076","chateau-cornwall","Chartwell Chateau Cornwall Retirement Residence","41 Amelia Street, Cornwall, Ontario K6H 7E5","613 937-7276","en","True","Cornwall","Ontario","https://dev.chartwell.com/on/cornwall/chateau-cornwall","https://dev.chartwell.com/fr/on/cornwall/chateau-cornwall"
"True","{8030224B-3BE5-4E45-88A9-1422DA6C6644}","11146","mcconnell","Chartwell McConnell Retirement Residence","801 4th Street East, Cornwall, Ontario K6H 7M8","613 937-7278","en","True","Cornwall","Ontario","https://dev.chartwell.com/on/cornwall/mcconnell","https://dev.chartwell.com/fr/on/cornwall/mcconnell"
"False","{4CC65A10-D906-4BAD-B7B1-3428538A4BBD}","11006","georgian","Chartwell Georgian Retirement Residence","255 Governors Road, Dundas, Ontario L9H 3K4","289-858-2974","en","True","Dundas","Ontario","https://dev.chartwell.com/on/dundas/georgian",""
"False","{1770C7E7-C4B5-4AAA-BDA6-CEF8288EC3EE}","11151","scarlett-heights","Chartwell Scarlett Heights Retirement Residence","4005 Eglinton Avenue West, Etobicoke, Ontario M9A 5H3","647-846-7007","en","False","Etobicoke","Ontario","https://dev.chartwell.com/on/etobicoke/scarlett-heights",""
"False","{1F3701F0-274D-465E-A4A9-26563EAC5B5C}","11149","royal-on-gordon","Chartwell Royal on Gordon Retirement Residence","1691 Gordon Street, Guelph, Ontario N1L 1E1","226-706-8824","en","False","Guelph","Ontario","https://dev.chartwell.com/on/guelph/royal-on-gordon",""
"False","{0947DE80-DC4B-4C82-A65F-926D2BCAA872}","11093","wellington-park","Chartwell Wellington Park Retirement Residence","181 Janefield Avenue, Guelph, Ontario N1G 1V2","226-706-8822","en","False","Guelph","Ontario","https://dev.chartwell.com/on/guelph/wellington-park",""
"False","{A11ABA7F-4AA2-44E3-A227-93A38714F5E7}","11133","deerview-crossing","Chartwell Deerview Crossing Retirement Residence","460 Rymal Road West, Hamilton, Ontario L9B 0B2","289-309-7437","en","False","Hamilton","Ontario","https://dev.chartwell.com/on/hamilton/deerview-crossing",""
"True","{81E62B64-BCAB-4381-AFDF-242F6B26E116}","11079","empress-kanata","Chartwell Empress Kanata Retirement Residence","170 McGibbon Drive, Kanata, Ontario K2L 4H5","613 663-2965","en","True","Kanata","Ontario","https://dev.chartwell.com/on/kanata/empress-kanata","https://dev.chartwell.com/fr/on/kanata/empress-kanata"
"False","{8700B14D-1FBB-45BD-BCB8-A9AD58AFCFC4}","11097","conservatory-pond","Chartwell Conservatory Pond Retirement Residence","1499 Stoneridge Drive, Kingston, Ontario K7M 9H9","613-817-9875","en","True","Kingston","Ontario","https://dev.chartwell.com/on/kingston/conservatory-pond",""
"False","{B73D5622-B661-43B1-9217-49675CBAB88E}","11094","bankside","Chartwell Bankside Retirement Residence","71 Bankside Drive, Kitchener, Ontario N2N 3L1","226-336-8941","en","True","Kitchener","Ontario","https://dev.chartwell.com/on/kitchener/bankside",""
"False","{C9285939-C193-4199-9235-CB8E34678B6F}","11135","westmount","Chartwell Westmount Retirement Residence","190 David Bergey Drive, Kitchener, Ontario N2E 0E7","226-336-8945","en","True","Kitchener","Ontario","https://dev.chartwell.com/on/kitchener/westmount",""
"False","{66F5C447-1E2E-433E-BF89-CBA75D5559C5}","11082","oak-park-lasalle","Chartwell Oak Park LaSalle Retirement Residence","3955 Thirteenth Street, LaSalle, Ontario N9H 2S7","226-526-9693","en","True","LaSalle","Ontario","https://dev.chartwell.com/on/lasalle/oak-park-lasalle",""
"False","{1B757EC0-17C8-4950-B134-54E6CA708C83}","11028","meadowbrook","Chartwell Meadowbrook Retirement Residence","18 Jacobson Drive, Lively, Ontario P3Y 1P7","705-836-9999","en","True","Lively","Ontario","https://dev.chartwell.com/on/lively/meadowbrook",""
"False","{F4879F6D-24BD-4FEB-80FC-BFC4B77D84DD}","11114","riverside","Chartwell Riverside Retirement Residence","201 Riverside Drive, London, Ontario N6H 1E5","226-667-8062","en","False","London","Ontario","https://dev.chartwell.com/on/london/riverside",""
"False","{B43FAF2F-3AC3-4197-9F52-AE5E69E3349D}","11098","rouge-valley","Chartwell Rouge Valley Retirement Residence","5958 16th Avenue, Markham, Ontario L3P 8N1","289-378-6654","en","True","Markham","Ontario","https://dev.chartwell.com/on/markham/rouge-valley",""
"False","{E7DE10CB-EEDB-4359-94D7-10A42174E83E}","11228","tiffin","Chartwell Tiffin Retirement Residence","105 Pillsbury Drive, Midland, Ontario L4R 0E7","705-540-9423","en","False","Midland","Ontario","https://dev.chartwell.com/on/midland/tiffin",""
"False","{D9879643-A015-48A6-A63A-CB33CCE28271}","11292","erinview","Chartwell Erinview Retirement Residence","2630 Fifth Line West, Mississauga, Ontario L5K 0A8","289-628-0238","en","False","Mississauga","Ontario","https://dev.chartwell.com/on/mississauga/erinview",""
"False","{93841AD3-E945-4493-823E-457DC3C3E628}","11065","regency","Chartwell Regency Retirement Residence","29 Mississauga Road North, Mississauga, Ontario L5H 2H7","289-643-1996","en","False","Mississauga","Ontario","https://dev.chartwell.com/on/mississauga/regency",""
"False","{AA27BA47-CBD3-4AB8-8538-82177196BAEE}","11132","robert-speck","Chartwell Robert Speck Retirement Residence","100 Robert Speck Parkway, Mississauga, Ontario L4Z 0A1","289-633-2154","en","False","Mississauga","Ontario","https://dev.chartwell.com/on/mississauga/robert-speck",""
"False","{5FDC86D6-D3E7-458A-9CCF-E5ACDB5C50B5}","11010","hartford","Chartwell Hartford Retirement Residence","3 Fifth Street West, Morrisburg, Ontario K0C 1X0","613-937-7274","en","True","Morrisburg","Ontario","https://dev.chartwell.com/on/morrisburg/hartford",""
"True","{D3531E6B-C5D1-4811-A701-2FCCA8F67B42}","11238","stillwater-creek","Chartwell Stillwater Creek Retirement Residence","2018 Robertson Road, Nepean, Ontario K2H 1C6","613 366-6173","en","True","Nepean","Ontario","https://dev.chartwell.com/on/nepean/stillwater-creek","https://dev.chartwell.com/fr/on/nepean/stillwater-creek"
"False","{682A9F21-5948-4853-B16A-FEDAA6E48003}","11019","barton","Chartwell Barton Retirement Residence","17290 Leslie Street, Newmarket, Ontario L3Y 3E1","289-366-3689","en","True","Newmarket","Ontario","https://dev.chartwell.com/on/newmarket/barton",""
"False","{5C9106F0-FBF0-4618-9D65-480202D63529}","11027","gibson","Chartwell Gibson Retirement Residence","1955 Steeles Avenue East, North York, Ontario M2H 3P1","647-547-1811","en","False","North York","Ontario","https://dev.chartwell.com/on/north-york/gibson",""
"False","{0FE4F23C-D762-4171-AD23-A9CC475CDFF9}","11141","lansing","Chartwell Lansing Retirement Residence","10 Senlac Road, Toronto, Ontario M2N 6P8","647-846-7003","en","True","Toronto","Ontario","https://dev.chartwell.com/on/north-york/lansing",""
"False","{86D4EECB-F7CC-4CE5-AE93-F0E94E2AE3C5}","11130","oakville","Chartwell Oakville Retirement Residence","180 Oak Park Boulevard, Oakville, Ontario L6H 0A6","289-644-2960","en","False","Oakville","Ontario","https://dev.chartwell.com/on/oakville/oakville",""
"False","{92F82AF2-B997-4930-BD7E-B4C4729E3902}","11193","waterford","Chartwell Waterford Retirement Residence","2160 Baronwood Drive, Oakville, Ontario L6M 0Y1","289-644-2951","en","False","Oakville","Ontario","https://dev.chartwell.com/on/oakville/waterford",""
"False","{B1480156-7489-42B2-97D6-63034AE87CD5}","11205","montgomery-village","Chartwell Montgomery Village Retirement Residence","155 Riddell Road, Orangeville, Ontario L9W 6R4","226-706-8528","en","True","Orangeville","Ontario","https://dev.chartwell.com/on/orangeville/montgomery-village",""
"False","{7D4CD7EB-E905-4797-B6D9-B65C85DD0E51}","11134","wynfield","Chartwell Wynfield Retirement Residence","431 Woodmount Drive, Oshawa, Ontario L1K 0P7","289-634-7776","en","True","Oshawa","Ontario","https://dev.chartwell.com/on/oshawa/wynfield",""
"True","{D762F1C8-0775-4060-8C41-4E5058D561BE}","11227","lord-lansdowne","Chartwell Lord Lansdowne Retirement Residence","920 Bank Street, Ottawa, Ontario K1S 1M8","613 688-1885","en","True","Ottawa","Ontario","https://dev.chartwell.com/on/ottawa/lord-lansdowne","https://dev.chartwell.com/fr/on/ottawa/lord-lansdowne"
"True","{999D4F97-4BCC-4808-B533-C7FFC53F8EE3}","11036","new-edinburgh-square","Chartwell New Edinburgh Square Retirement Residence","420 MacKay Street, Ottawa, Ontario K1M 2C4","343 882-4759","en","True","Ottawa","Ontario","https://dev.chartwell.com/on/ottawa/new-edinburgh-square","https://dev.chartwell.com/fr/on/ottawa/new-edinburgh-square"
"True","{A35CB099-4942-459B-B9B8-E75C1D88FA25}","11209","rockcliffe","Chartwell Rockcliffe Retirement Residence","100 Island Lodge Road, Ottawa, Ontario K1N 0A2","343 883-9902","en","True","Ottawa","Ontario","https://dev.chartwell.com/on/ottawa/rockcliffe","https://dev.chartwell.com/fr/on/ottawa/rockcliffe"
"True","{47074872-9488-4E5E-A6C5-7F00F2F1A596}","11059","pinewood","Chartwell Pinewood Retirement Residence","1022 Pembroke Street East, Pembroke, Ontario K8A 8A7","613-775-5007","en","False","Pembroke","Ontario","https://dev.chartwell.com/on/pembroke/pinewood","https://dev.chartwell.com/fr/on/pembroke/pinewood"
"False","{663988F1-9529-45A1-A49B-E18160F551BF}","11066","jackson-creek","Chartwell Jackson Creek Retirement Residence","481 Reid Street, Peterborough, Ontario K9H 7R9","705-748-1929","en","False","Peterborough","Ontario","https://dev.chartwell.com/on/peterborough/jackson-creek",""
"False","{C69DEC45-1595-4C6B-B000-E331E7BFBFE9}","11115","pickering-city-centre","Chartwell Pickering City Centre Retirement Residence","1801 Valley Farm Road, Pickering, Ontario L1V 0A5","289-631-1944","en","True","Pickering","Ontario","https://dev.chartwell.com/on/pickering/pickering-city-centre",""
"True","{88C9C175-8BE7-4A50-94D8-70778FE7FE4E}","11013","quail-creek","Chartwell Quail Creek Retirement Residence","450 Albert Street, Renfrew, Ontario K7V 4K4","613 775-0133","en","False","Renfrew","Ontario","https://dev.chartwell.com/on/renfrew/quail-creek","https://dev.chartwell.com/fr/on/renfrew/quail-creek"
"False","{899305DA-A6EF-4D35-A64B-0EAB935AB8FF}","11212","oak-ridges","Chartwell Oak Ridgess Retirement Residence","12925 Yonge Street, Richmond Hill, Ontario L4E 0T7","289-573-9736","en","False","Richmond Hill","Ontario","https://dev.chartwell.com/on/richmond-hill/oak-ridges",""
"False","{4A4EEC69-F5C5-4573-9F29-48CA9BF45004}","11063","collegiate-heights","Chartwell Collegiate Heights Retirement Residence","95 Fauquier Avenue, Sault Ste Marie, Ontario P6B 0A2","705-256-4679","en","True","Sault Ste Marie","Ontario","https://dev.chartwell.com/on/sault-ste-marie/collegiate-heights",""
"False","{2B311C9B-FF31-4ABA-A093-EC1B3B9C6BB2}","11015","anne-hathaway","Chartwell Anne Hathaway Retirement Residence","480 Downie Street, Stratford, Ontario N5A 7Y5","226-779-0969","en","False","Stratford","Ontario","https://dev.chartwell.com/on/stratford/anne-hathaway",""
"False","{6BECD8D2-0159-4D8F-A532-C83943F2B912}","11078","southwind","Chartwell Southwind Retirement Residence","1645 Paris Street, Sudbury, Ontario P3E 0A5","705-885-9644","en","False","Sudbury","Ontario","https://dev.chartwell.com/on/sudbury/southwind",""
"False","{511078A3-FD43-49B6-8D1A-81CBECFEDD4E}","11060","westmount-on-william","Chartwell Westmount on William Retirement Residence","599 William Avenue, Sudbury, Ontario P3A 5W3","705-885-9642","en","False","Sudbury","Ontario","https://dev.chartwell.com/on/sudbury/westmount-on-william",""
"False","{CA3D0251-8F6A-46CC-85A3-550366B46839}","11211","st-clair-beach","Chartwell St. Clair Beach Retirement Residence","13500 Riverside Drive East, Tecumseh, Ontario N8N 0C3","226-526-8329","en","False","Tecumseh","Ontario","https://dev.chartwell.com/on/tecumseh/st-clair-beach",""
"False","{3ADF8587-023E-4BC7-936C-107D5668BC87}","11102","thornhill","Chartwell Thornhill Retirement Residence","784 Centre Street, Thornhill, Ontario L4J 9G7","289-588-0974","en","True","Thornhill","Ontario","https://dev.chartwell.com/on/thornhill/thornhill",""
"False","{48B22510-C583-4F1D-98A2-7AC85EDCF42B}","11061","glacier-ridge","Chartwell Glacier Ridge Retirement Residence","1261 Jasper Drive, Thunder Bay, Ontario P7B 6Z4","807-473-0527","en","True","Thunder Bay","Ontario","https://dev.chartwell.com/on/thunder-bay/glacier-ridge",""
"False","{0BD37C38-6AD9-47FC-AF90-370519C86EF8}","11229","hilldale","Chartwell Hilldale Retirement Residence","309 Hilldale Road, Thunder Bay, Ontario P7G 0A2","807-700-5774","en","True","Thunder Bay","Ontario","https://dev.chartwell.com/on/thunder-bay/hilldale",""
"False","{B8851D83-9D2F-4C85-B56B-AD914F4913D9}","11201","isabella","Chartwell Isabella Retirement Residence","1350 Isabella Street East, Thunder Bay, Ontario P7E 0A5","807-333-0382","en","True","Thunder Bay","Ontario","https://dev.chartwell.com/on/thunder-bay/isabella",""
"False","{00111761-56E3-4BDF-8FDA-F7E5346D7DDC}","11113","thunder-bay","Chartwell Thunder Bay Retirement Residence","770 Arundel Street, Thunder Bay, Ontario P7A 8C8","807-473-0529","en","True","Thunder Bay","Ontario","https://dev.chartwell.com/on/thunder-bay/thunder-bay",""
"False","{C5F23C90-5ED4-425D-A274-892227622F4E}","11138","avondale","Chartwell Avondale Retirement Residence","1238 Queen Street East, Toronto, Ontario M4L 1C3","647-547-1813","en","False","Toronto","Ontario","https://dev.chartwell.com/on/toronto/avondale",""
"False","{664C0A19-419C-4D1C-B7DE-F1CC97B9FC1A}","11202","grenadier","Chartwell Grenadier Retirement Residence","2100 Bloor Street West, Toronto, Ontario M6S 1M7","647-429-7982","en","False","Toronto","Ontario","https://dev.chartwell.com/on/toronto/grenadier",""
"False","{3EA906AB-3948-4C18-9E80-6F9490815420}","11199","the-sumach-by-chartwell","The Sumach by Chartwell","146 Sumach Street, Toronto, Ontario M5A 0P7","416-644-8912","en","True","Toronto","Ontario","https://dev.chartwell.com/on/toronto/the-sumach-by-chartwell",""
"False","{5845CB2E-A9E4-49FA-B5E1-B0B6C0F25E59}","11129","valley-vista","Chartwell Valley Vista Retirement Residence","600 Valley Vista Drive, Vaughan, Ontario L6A 4H2","289-963-9974","en","False","Vaughan","Ontario","https://dev.chartwell.com/on/vaughan/valley-vista",""
"False","{6185D96B-28CA-4AD3-AF4A-195DA648B464}","11233","orchards","Chartwell Orchards Retirement Residence","3421 Frederick Avenue, Vineland, Ontario L0R 2C0","289-438-2543","en","True","Vineland","Ontario","https://dev.chartwell.com/on/vineland/orchards",""
"False","{83AFD21E-36B6-4AA9-BBF8-E29E0BF46CB3}","11213","clair-hills","Chartwell Clair Hills Retirement Residence","530 Columbia Street West, Waterloo, Ontario N2T 0B1","226-336-6899","en","True","Waterloo","Ontario","https://dev.chartwell.com/on/waterloo/clair-hills",""
"False","{C55DDD46-93C6-4290-BC8E-F6FD6403A986}","11095","terrace-on-the-square","Chartwell Terrace on the Square Retirement Residence","100 Caroline Street South, Waterloo, Ontario N2L 1X5","226-336-8943","en","True","Waterloo","Ontario","https://dev.chartwell.com/on/waterloo/terrace-on-the-square",""
"False","{673CC9E5-24C2-46A9-BB36-324588F958E7}","11017","colonial","Chartwell Colonial Retirement Residence","101 Manning Road, Whitby, Ontario L1N 9M2","289-638-3531","en","False","Whitby","Ontario","https://dev.chartwell.com/on/whitby/colonial",""
"False","{7F06EC21-E225-448B-B963-DBF769F0ED82}","11037","oak-park-terrace","Chartwell Oak Park Terrace Retirement Residence","1750 EC Row, North Service Road, Windsor, Ontario N8W 1Y3","226-526-9691","en","True","Windsor","Ontario","https://dev.chartwell.com/on/windsor/oak-park-terrace",""
"False","{BCD7C1C4-FDC9-41D9-9AB8-980A7A9F99B3}","11207","oxford-gardens","Chartwell Oxford Gardens Retirement Residence","423 Devonshire Avenue, Woodstock, Ontario N4S 0B2","226-242-0899","en","True","Woodstock","Ontario","https://dev.chartwell.com/on/woodstock/oxford-gardens",""
"True","{3D144236-56B7-4387-979E-99675C167938}","11222","le-montcalm","Chartwell Le Montcalm résidence pour retraités","95, boulevard Montcalm Nord, Candiac, Quebec J5R 0R8","579 886-8892","en","False","Candiac","Quebec","https://dev.chartwell.com/qc/candiac/le-montcalm","https://dev.chartwell.com/fr/qc/candiac/le-montcalm"
"True","{206F32A6-7D88-4245-A41C-A9B446E8A542}","11041","cite-jardin","Chartwell Cité-Jardin résidence pour retraités","60, rue de la Futaie, Gatineau, Quebec J8T 8P5","819 282-8450","en","True","Gatineau","Quebec","https://dev.chartwell.com/qc/gatineau/cite-jardin","https://dev.chartwell.com/fr/qc/gatineau/cite-jardin"
"True","{5E6DC18A-3AB2-4297-899D-8C110C05008B}","11158","domaine-des-trembles","Chartwell Domaine des Trembles résidence pour retraités","250, boulevard Saint-Raymond, Gatineau, Quebec J9A 0B1","819 282-8454","en","True","Gatineau","Quebec","https://dev.chartwell.com/qc/gatineau/domaine-des-trembles","https://dev.chartwell.com/fr/qc/gatineau/domaine-des-trembles"
"True","{74E123C4-63CB-49B3-8A69-8B021594BEA4}","11107","domaine-notre-dame","Chartwell Domaine Notre-Dame résidence pour retraités","39 rue Wìgwàs, Gatineau, Quebec J8Y 2W1","819 282-8452","en","True","Gatineau","Quebec","https://dev.chartwell.com/qc/gatineau/domaine-notre-dame","https://dev.chartwell.com/fr/qc/gatineau/domaine-notre-dame"
"True","{F5F382A6-5856-4BF0-BE5E-39A7B9CCE570}","11268","du-plateau","Chartwell du Plateau résidence pour retraités","245 Boulevard du Plateau, Gatineau, Quebec  J9A 0H9","819 815-1605","en","False","Gatineau","Quebec","https://dev.chartwell.com/qc/gatineau/du-plateau","https://dev.chartwell.com/fr/qc/gatineau/du-plateau"
"True","{8470DCB0-2D39-41E7-8DF6-3592B0DF3A61}","11198","jardins-notre-dame","Chartwell Jardins Notre-Dame résidence pour retraités","195, boulevard Saint-Joseph, Gatineau, Quebec J8Y 0A3","819 815-9989","en","True","Gatineau","Quebec","https://dev.chartwell.com/qc/gatineau/jardins-notre-dame","https://dev.chartwell.com/fr/qc/gatineau/jardins-notre-dame"
"True","{C9E7F596-4ECA-4BE8-BEAC-1096CA4CF819}","11106","monastere-d-aylmer","Chartwell Monastère d'Aylmer résidence pour retraités ","161, rue Principale, Gatineau, Quebec J9H 7H4","819 815-8855","en","True","Gatineau","Quebec","https://dev.chartwell.com/qc/gatineau/monastere-d-aylmer","https://dev.chartwell.com/fr/qc/gatineau/monastere-d-aylmer"
"True","{B368E2CA-877A-4227-8508-0DA18594594F}","11086","manoir-kirkland","Chartwell Manoir Kirkland résidence pour retraités","2, rue Canvin, Kirkland, Quebec H9H 4B5","438 538-8472","en","True","Kirkland","Quebec","https://dev.chartwell.com/qc/kirkland/manoir-kirkland","https://dev.chartwell.com/fr/qc/kirkland/manoir-kirkland"
"True","{82553A13-D5A2-4843-A65C-C303F3913A48}","11286","les-tours-angrignon","Chartwell Les Tours Angrignon résidence pour retraités","1500 Angrignon Blvd, LaSalle, Quebec H8N 3H8","438-228-1219","en","False","LaSalle","Quebec","https://dev.chartwell.com/qc/lasalle/les-tours-angrignon","https://dev.chartwell.com/fr/qc/lasalle/les-tours-angrignon"
"True","{B89834F9-7C37-46B6-81D4-B6ECF3BA0441}","11157","belvederes-de-lachine","Chartwell Belvédères de Lachine résidence pour retraités","3000, rue Notre-Dame, Lachine, Quebec H8S 2H1","438-819-8467","en","True","Lachine","Quebec","https://dev.chartwell.com/qc/montreal/belvederes-de-lachine","https://dev.chartwell.com/fr/qc/montreal/belvederes-de-lachine"
"True","{E45974A5-4B71-4D97-B61C-A7082C5CD673}","11283","rosemont-les-quartiers","Chartwell Rosemont Les Quartiers résidence pour retraités","5200 Rue Molson, Montreal, Quebec H1Y 0C1","514-819-4336","en","False","Montreal","Quebec","https://dev.chartwell.com/qc/montreal/rosemont-les-quartiers","https://dev.chartwell.com/fr/qc/montreal/rosemont-les-quartiers"
"True","{CA43F15B-8FDA-45BD-B4BF-0D30D93B56F3}","11194","l-unique","Chartwell L'Unique résidence pour retraités","435, rue Bibeau, Saint-Eustache, Quebec J7R 0C7","579 379-8904","en","False","Saint-Eustache","Quebec","https://dev.chartwell.com/qc/saint-eustache/l-unique","https://dev.chartwell.com/fr/qc/saint-eustache/l-unique"
"True","{614B0131-D9E2-4B1C-B2ED-7EB8F35775E1}","11270","le-normandie","Chartwell Le Normandie résidence pour retraités","410 Rue Laberge, Saint-Jean-Sur-Richelieu, Quebec J3A 1G5","450 390-0131","en","False","Saint-Jean-Sur-Richelieu","Quebec","https://dev.chartwell.com/qc/saint-jean-sur-richelieu/le-normandie","https://dev.chartwell.com/fr/qc/saint-jean-sur-richelieu/le-normandie"
"True","{84D187FF-F589-4A92-8E4F-0475F970E7AF}","11044","oasis-saint-jean","Chartwell Oasis Saint-Jean résidence pour retraités","1050, rue Stefoni, Saint-Jean-Sur-Richelieu, Quebec J3A 1T5","514 940-3532","en","True","Saint-Jean-Sur-Richelieu","Quebec","https://dev.chartwell.com/qc/saint-jean-sur-richelieu/oasis-saint-jean","https://dev.chartwell.com/fr/qc/saint-jean-sur-richelieu/oasis-saint-jean"
"True","{A3C8D158-4894-46D7-863A-BBF5F6E9F8ED}","11272","riviere-du-nord","Chartwell Rivière-du-Nord résidence pour retraités","685 Bd Monseigneur-Dubois, Saint-Jerôme, Quebec J7Y 0M3","450 990-0939","en","False","Saint-Jerôme","Quebec","https://dev.chartwell.com/qc/saint-jerome/riviere-du-nord","https://dev.chartwell.com/fr/qc/saint-jerome/riviere-du-nord"
"True","{3C04A79A-9832-42D1-AE3F-B65A6F016451}","11269","rock-forest","Chartwell Rock Forest résidence pour retraités","1111 Rue du Haut-Bois N, Sherbrooke, Quebec J1N 1A4","819 200-2878","en","False","Sherbrooke","Quebec","https://dev.chartwell.com/qc/sherbrooke/rock-forest","https://dev.chartwell.com/fr/qc/sherbrooke/rock-forest"
"True","{430833D7-23B1-4D4C-9635-04056C290AD8}","11120","seigneuries-du-carrefour","Chartwell Seigneuries du Carrefour résidence pour retraités","445, rue des erables, Sherbrooke, Quebec J1L 0C2","819 416-1713","en","False","Sherbrooke","Quebec","https://dev.chartwell.com/qc/sherbrooke/seigneuries-du-carrefour","https://dev.chartwell.com/fr/qc/sherbrooke/seigneuries-du-carrefour"
"True","{BD57F36C-5435-438B-A79D-4CDCFD670861}","11271","des-mille-iles","Chartwell des Mille-Îles résidence pour retraités","2915 Boulevard de la Pinière, Terrebonne, Quebec J6X 0K2","450 914-0131","en","False","Terrebonne","Quebec","https://dev.chartwell.com/qc/terrebonne/des-mille-iles","https://dev.chartwell.com/fr/qc/terrebonne/des-mille-iles"
"True","{33C69F8D-D998-43AB-BF55-B4E1662071E8}","11219","le-prescott","Chartwell Le Prescott résidence pour retraités","1335, rue emile-Bouchard, Vaudreuil-Dorion, Quebec J7V 0Y2","438 338-9854","en","False","Vaudreuil-Dorion","Quebec","https://dev.chartwell.com/qc/vaudreuil-dorion/le-prescott","https://dev.chartwell.com/fr/qc/vaudreuil-dorion/le-prescott"
"True","{45882923-B153-43C9-A191-E71389430C27}","11167","les-ecores","Chartwell Les Écores résidence pour retraités","1800, boulevard Cartier Est, Laval, Quebec H7G 4R6","450 903-0296","en","False","Laval","Quebec","https://dev.chartwell.com/qc/laval/les-ecores","https://dev.chartwell.com/fr/qc/laval/les-ecores"
"True","{401DBB77-E12A-4AF9-99E0-05B55273ED13}","11293","panorama","Chartwell Panorama résidence pour retraités","100 rue Étienne-Lavoie, Laval, Quebec H7X 3S5","579-379-0032","en","False","Laval","Quebec","https://dev.chartwell.com/qc/laval/panorama","https://dev.chartwell.com/fr/qc/laval/panorama"
"True","{BF729E74-8A3B-4873-9009-F22EBF90F7C5}","11294","azalis","Chartwell Azalis résidence pour retraités","256, rue Notre-Dame, Repentigny, Quebec J6A 0C5","438-228-2248","en","False","Repentigny","Quebec","https://dev.chartwell.com/qc/repentigny/azalis","https://dev.chartwell.com/fr/qc/repentigny/azalis"
"False","{4775A0B1-1189-4E3C-9BC8-2A2A528A78D4}","11277","le-jules-verne","Chartwell Le Jules-Verne résidence pour retraités","1250 Av. Jules-Verne, L'Ancienne-Lorette, Quebec G2E 0C2","581 689-1505","fr","False","L'Ancienne-Lorette","Quebec","","https://dev.chartwell.com/fr/qc/l-ancienne-lorette/le-jules-verne"
"False","{F9150AFE-4BC8-499E-9525-0BF75840A6A5}","11276","des-chutes","Chartwell des Chutes résidence pour retraités","605 Rue Frédéric Back, Levis, Quebec G7A 5N1","367 885-2014","fr","False","Levis","Quebec","","https://dev.chartwell.com/fr/qc/levis/des-chutes"
"False","{107AC798-7959-4A3A-A159-575806E5E2AA}","11275","des-rivieres","Chartwell des Rivières résidence pour retraités","1260 Rte des Rivières, Levis, Quebec G7A 0V3","367 885-2013","fr","False","Levis","Quebec","","https://dev.chartwell.com/fr/qc/levis/des-rivieres"
"False","{28770201-BC8E-4DCE-ADBF-4470C98D9414}","11119","appartements-de-bordeaux","Chartwell Appartements de Bordeaux pour retraités","2142, chemin Saint-Louis, Quebec, Quebec G1T 1P7","581 781-8693","fr","False","Quebec","Quebec","","https://dev.chartwell.com/fr/qc/quebec/appartements-de-bordeaux"
"False","{7A27AEDD-1857-4739-81A8-12B153ED2898}","11108","domaine-de-bordeaux","Chartwell Domaine de Bordeaux résidence pour retraités","2140, chemin Saint-Louis, Quebec, Quebec G1T 1P8","581 781-8691","fr","False","Quebec","Quebec","","https://dev.chartwell.com/fr/qc/quebec/domaine-de-bordeaux"
"False","{40C1E431-1A21-4823-9C01-CE7F3ADF3EE5}","11242","l-envol","Chartwell L'Envol résidence pour retraités","1108, boulevard de la Chaudiere, Cap-Rouge, Quebec G1Y 0A6","418 478-4248","fr","False","Cap-Rouge","Quebec","","https://dev.chartwell.com/fr/qc/quebec/l-envol"
"False","{5977A82B-590F-41C5-9B33-F76952660658}","11163","manoir-archer","Chartwell Manoir Archer résidence pour retraités","1217, route de l’eglise, Quebec, Quebec G1W 3P2","581 781-8699","fr","False","Quebec","Quebec","","https://dev.chartwell.com/fr/qc/quebec/manoir-archer"
"False","{61D8B1B4-1AE7-42ED-99AA-0BF5B176F93A}","11162","manoir-et-cours-de-l-atrium","Chartwell Manoir et Cours de l'Atrium résidence pour retraités","545, rue Francis-Byrne, Quebec, Quebec G1H 7L3","581 781-8697","fr","True","Quebec","Quebec","","https://dev.chartwell.com/fr/qc/quebec/manoir-et-cours-de-l-atrium"
"False","{741B63F4-4008-492C-998B-E25D98100188}","11274","val-belair","Chartwell Val-Bélair résidence pour retraités","960 Rue des Ibis, Quebec, Quebec G3K 0T8","581 662-0022","fr","False","Quebec","Quebec","","https://dev.chartwell.com/fr/qc/quebec/val-belair"
"False","{03280F6D-2CCB-455F-BEE5-9E413E414396}","11262","le-florilege","Chartwell Le Florilège résidence pour retraités","2556 Rue Lionel-Audet, Quebec, Quebec G1C 0R7","581 781-1322","fr","False","Quebec","Quebec","","https://dev.chartwell.com/fr/qc/quebec/le-florilege"
"False","{1F8FE8A3-488A-439E-AFD2-733D1D15A61B}","11236","trait-carre","Chartwell Trait-Carré résidence pour retraités","1265, boulevard Louis-XIV, Quebec, Quebec G2L 0H6","418 478-3966","fr","False","Quebec","Quebec","","https://dev.chartwell.com/fr/qc/quebec/trait-carre"
"False","{1EAE9F9A-C21C-4C92-A649-4BC5796E4BCB}","11099","jardins-de-la-gare","Chartwell Jardins de la Gare résidence pour retraités","2025, rue Moreau, Saint-Hyacinthe, Quebec J2S 5C8","450 768-6705","fr","False","Saint-Hyacinthe","Quebec","","https://dev.chartwell.com/fr/qc/saint-hyacinthe/jardins-de-la-gare"
"False","{0169F715-A318-4643-8668-8760E781BDAE}","11099","le-yamaska","Chartwell Le Yamaska appartements","1480, rue Delorme, Saint-Hyacinthe, Quebec J2S 5C8","450 768-6705","fr","False","Saint-Hyacinthe","Quebec","","https://dev.chartwell.com/fr/qc/saint-hyacinthe/le-yamaska"
"False","{0FFCF0ED-5D88-42FC-B65B-C587D497B0DC}","11068","ste-marthe","Chartwell Ste-Marthe résidence pour retraités","675, rue Saint-Pierre Ouest, Saint-Hyacinthe, Quebec J2T 1N7","450 768-6703","fr","False","Saint-Hyacinthe","Quebec","","https://dev.chartwell.com/fr/qc/saint-hyacinthe/ste-marthe"
"False","{4382ADB8-1D62-4808-BECE-7837768FDF16}","11166","manoir-saint-jerome","Chartwell Manoir Saint-Jérôme résidence pour retraités","333A, rue des Pins, Saint-Jerôme, Quebec J7Z 0A3","450 710-0696","fr","False","Saint-Jerôme","Quebec","","https://dev.chartwell.com/fr/qc/saint-jerome/manoir-saint-jerome"
"False","{07612A25-C706-4E44-AE39-D681E16FA222}","11045","domaine-cascade","Chartwell Domaine Cascade résidence pour retraités","695, 7e rue de la Pointe, Shawinigan, Quebec G9N 8K2","1-855-461-0685","fr","False","Shawinigan","Quebec","","https://dev.chartwell.com/fr/qc/shawinigan/domaine-cascade"
"False","{B08C9740-C940-485E-B638-C3FC59057E0A}","11273","shawinigan","Chartwell Shawinigan résidence pour retraités","100 9e Rue de la Pointe, Shawinigan, Quebec G9N 0E7","819 805-0710","fr","False","Shawinigan","Quebec","","https://dev.chartwell.com/fr/qc/shawinigan/shawinigan"
"False","{88FCA253-3875-45C7-A7C1-ACDD332A4CA9}","11042","le-duplessis","Chartwell Le Duplessis résidence pour retraités","20, rue Duplessis, Trois-Rivieres, Quebec G8T 9P2","819 415-0762","fr","False","Trois-Rivieres","Quebec","","https://dev.chartwell.com/fr/qc/trois-rivieres/le-duplessis"
"False","{9795E262-F8AB-4D7C-913F-72DFC3D6F447}","11170","notre-dame-victoriaville","Chartwell Notre-Dame Victoriaville résidence pour retraités","222, rue Notre-Dame Ouest, Victoriaville, Quebec G6P 1R9","819 809-0521","fr","False","Victoriaville","Quebec","","https://dev.chartwell.com/fr/qc/victoriaville/notre-dame-victoriaville"
